GLOBAL-12               
1 49772U 21115BA  26065.85451504  .00039889  00000+0  76499-3 0  9994
2 49772  53.1959 174.4383 0003091  56.7170 303.4135 15.47631288240024
GLOBAL-13               
1 49773U 21115BB  26065.59484812  .00029382  00000+0  68555-3 0  9995
2 49773  53.1990 180.8640 0002093 135.5501 224.5674 15.42005817239917
GLOBAL-17               
1 49949U 21120A   26065.93485782  .00029401  00000+0  57377-3 0  9993
2 49949  41.9954 296.1877 0012156 257.8601 102.0880 15.46813804239039
GLOBAL-16               
1 49950U 21120B   26065.37443908  .00028015  00000+0  57893-3 0  9990
2 49950  41.9959 301.5473 0010158 245.3236 114.6548 15.45191221238912
XW-3 (CAS-9)            
1 50466U 21131B   26066.21301164  .00000575  00000+0  19153-3 0  9995
2 50466  98.4965 159.1825 0004941  56.1116 304.0542 14.41246797220426
ION SCV-004             
1 50993U 22002K   26066.13717843  .00006247  00000+0  22205-3 0  9998
2 50993  97.2963 125.7253 0007500  10.7436 349.3963 15.29327396229694
ETV-A1                  
1 51060U 22002CE  26066.16620663  .00013822  00000+0  36714-3 0  9997
2 51060  97.2991 132.8770 0005135  11.3988 348.7372 15.38370395230141
BRO-5                   
1 51061U 22002CF  26066.18395175  .00015744  00000+0  35513-3 0  9998
2 51061  97.3090 139.2559 0004499 357.8753   2.2475 15.43308944230502
LUDI TANCE 1-01A (L-SA*)
1 51284U 22007A   26066.19791250  .00000963  00000+0  10973-3 0  9995
2 51284  97.8118  75.0728 0001611  90.8291 269.3111 14.88421660223306
INSPIRESAT 1            
1 51657U 22013B   26066.06134760  .00149961  00000+0  89144-3 0  9997
2 51657  97.4486 113.3237 0004415  95.4789 264.6980 15.77549979226468
LUDI TANCE 1-01B (L-SA*)
1 51822U 22018A   26066.16426755  .00000200  00000+0  27425-4 0  9992
2 51822  97.8122  75.0288 0001578  91.1486 268.9912 14.88407568218536
2022-019D               
1 51827U 22019D   26066.23555669  .00069497  00000+0  90015-3 0  9990
2 51827  97.3695 154.1823 0007139 151.0031 209.1623 15.58634989223760
JILIN-1 GAOFEN 03D14    
1 51831U 22019H   26066.19548779  .00240509  00000+0  13463-2 0  9990
2 51831  97.3699 159.2712 0004119 157.6219 202.5228 15.78662486224086
2022-019J               
1 51832U 22019J   26066.18201485  .00001579  00000+0  76499-4 0  9992
2 51832  97.3541 131.6078 0007821 217.5868 142.4822 15.19952226222305
JILIN-1 GAOFEN 03D16    
1 51834U 22019L   26066.18588142  .00326681  00000+0  13329-2 0  9997
2 51834  97.3700 160.5569 0003287 193.9750 166.1430 15.85305255224171
JILIN-1 GAOFEN 03D11    
1 51835U 22019M   26065.18646223  .00165135  00000+0  10578-2 0  9990
2 51835  97.3742 158.1890 0004099 176.0899 184.0399 15.75804215223919
