[{"OBJECT_NAME":"GLOBAL-12","OBJECT_ID":"2021-115BA","EPOCH":"2026-03-06T20:30:30.099456","MEAN_MOTION":15.47631288,"ECCENTRICITY":0.0003091,"INCLINATION":53.1959,"RA_OF_ASC_NODE":174.4383,"ARG_OF_PERICENTER":56.717,"MEAN_ANOMALY":303.4135,"EPHEMERIS_TYPE":0,"CLASSIFICATION_TYPE":"U","NORAD_CAT_ID":49772,"ELEMENT_SET_NO":999,"REV_AT_EPOCH":24002,"BSTAR":0.00076499,"MEAN_MOTION_DOT":0.00039889,"MEAN_MOTION_DDOT":0},{"OBJECT_NAME":"GLOBAL-13","OBJECT_ID":"2021-115BB","EPOCH":"2026-03-06T14:16:34.877568","MEAN_MOTION":15.42005817,"ECCENTRICITY":0.00020936,"INCLINATION":53.199,"RA_OF_ASC_NODE":180.864,"ARG_OF_PERICENTER":135.5501,"MEAN_ANOMALY":224.5674,"EPHEMERIS_TYPE":0,"CLASSIFICATION_TYPE":"U","NORAD_CAT_ID":49773,"ELEMENT_SET_NO":999,"REV_AT_EPOCH":23991,"BSTAR":0.00068555254,"MEAN_MOTION_DOT":0.00029382,"MEAN_MOTION_DDOT":0},{"OBJECT_NAME":"GLOBAL-17","OBJECT_ID":"2021-120A","EPOCH":"2026-03-06T22:26:11.715648","MEAN_MOTION":15.46813804,"ECCENTRICITY":0.0012156,"INCLINATION":41.9954,"RA_OF_ASC_NODE":296.1877,"ARG_OF_PERICENTER":257.8601,"MEAN_ANOMALY":102.088,"EPHEMERIS_TYPE":0,"CLASSIFICATION_TYPE":"U","NORAD_CAT_ID":49949,"ELEMENT_SET_NO":999,"REV_AT_EPOCH":23903,"BSTAR":0.00057377,"MEAN_MOTION_DOT":0.00029401,"MEAN_MOTION_DDOT":0},{"OBJECT_NAME":"GLOBAL-16","OBJECT_ID":"2021-120B","EPOCH":"2026-03-06T08:59:11.536512","MEAN_MOTION":15.45191221,"ECCENTRICITY":0.00101585,"INCLINATION":41.9959,"RA_OF_ASC_NODE":301.5473,"ARG_OF_PERICENTER":245.3236,"MEAN_ANOMALY":114.6548,"EPHEMERIS_TYPE":0,"CLASSIFICATION_TYPE":"U","NORAD_CAT_ID":49950,"ELEMENT_SET_NO":999,"REV_AT_EPOCH":23891,"BSTAR":0.00057892886,"MEAN_MOTION_DOT":0.00028015,"MEAN_MOTION_DDOT":0},{"OBJECT_NAME":"XW-3 (CAS-9)","OBJECT_ID":"2021-131B","EPOCH":"2026-03-07T05:06:44.205696","MEAN_MOTION":14.41246797,"ECCENTRICITY":0.0004941,"INCLINATION":98.4965,"RA_OF_ASC_NODE":159.1825,"ARG_OF_PERICENTER":56.1116,"MEAN_ANOMALY":304.0542,"EPHEMERIS_TYPE":0,"CLASSIFICATION_TYPE":"U","NORAD_CAT_ID":50466,"ELEMENT_SET_NO":999,"REV_AT_EPOCH":22042,"BSTAR":0.00019153,"MEAN_MOTION_DOT":5.75e-6,"MEAN_MOTION_DDOT":0},{"OBJECT_NAME":"ION SCV-004","OBJECT_ID":"2022-002K","EPOCH":"2026-03-07T03:17:32.216352","MEAN_MOTION":15.29327396,"ECCENTRICITY":0.00075,"INCLINATION":97.2963,"RA_OF_ASC_NODE":125.7253,"ARG_OF_PERICENTER":10.7436,"MEAN_ANOMALY":349.3963,"EPHEMERIS_TYPE":0,"CLASSIFICATION_TYPE":"U","NORAD_CAT_ID":50993,"ELEMENT_SET_NO":999,"REV_AT_EPOCH":22969,"BSTAR":0.00022205,"MEAN_MOTION_DOT":6.247e-5,"MEAN_MOTION_DDOT":0},{"OBJECT_NAME":"ETV-A1","OBJECT_ID":"2022-002CE","EPOCH":"2026-03-07T03:59:20.252832","MEAN_MOTION":15.38370395,"ECCENTRICITY":0.0005135,"INCLINATION":97.2991,"RA_OF_ASC_NODE":132.877,"ARG_OF_PERICENTER":11.3988,"MEAN_ANOMALY":348.7372,"EPHEMERIS_TYPE":0,"CLASSIFICATION_TYPE":"U","NORAD_CAT_ID":51060,"ELEMENT_SET_NO":999,"REV_AT_EPOCH":23014,"BSTAR":0.00036714,"MEAN_MOTION_DOT":0.00013822,"MEAN_MOTION_DDOT":0},{"OBJECT_NAME":"BRO-5","OBJECT_ID":"2022-002CF","EPOCH":"2026-03-07T04:24:53.431200","MEAN_MOTION":15.43308944,"ECCENTRICITY":0.0004499,"INCLINATION":97.309,"RA_OF_ASC_NODE":139.2559,"ARG_OF_PERICENTER":357.8753,"MEAN_ANOMALY":2.2475,"EPHEMERIS_TYPE":0,"CLASSIFICATION_TYPE":"U","NORAD_CAT_ID":51061,"ELEMENT_SET_NO":999,"REV_AT_EPOCH":23050,"BSTAR":0.00035513,"MEAN_MOTION_DOT":0.00015744,"MEAN_MOTION_DDOT":0},{"OBJECT_NAME":"LUDI TANCE 1-01A (L-SAR 01A)","OBJECT_ID":"2022-007A","EPOCH":"2026-03-07T04:44:59.640000","MEAN_MOTION":14.8842166,"ECCENTRICITY":0.0001611,"INCLINATION":97.8118,"RA_OF_ASC_NODE":75.0728,"ARG_OF_PERICENTER":90.8291,"MEAN_ANOMALY":269.3111,"EPHEMERIS_TYPE":0,"CLASSIFICATION_TYPE":"U","NORAD_CAT_ID":51284,"ELEMENT_SET_NO":999,"REV_AT_EPOCH":22330,"BSTAR":0.00010973,"MEAN_MOTION_DOT":9.63e-6,"MEAN_MOTION_DDOT":0},{"OBJECT_NAME":"INSPIRESAT 1","OBJECT_ID":"2022-013B","EPOCH":"2026-03-07T01:28:20.432640","MEAN_MOTION":15.77549979,"ECCENTRICITY":0.0004415,"INCLINATION":97.4486,"RA_OF_ASC_NODE":113.3237,"ARG_OF_PERICENTER":95.4789,"MEAN_ANOMALY":264.698,"EPHEMERIS_TYPE":0,"CLASSIFICATION_TYPE":"U","NORAD_CAT_ID":51657,"ELEMENT_SET_NO":999,"REV_AT_EPOCH":22646,"BSTAR":0.00089144,"MEAN_MOTION_DOT":0.00149961,"MEAN_MOTION_DDOT":0},{"OBJECT_NAME":"LUDI TANCE 1-01B (L-SAR 01B)","OBJECT_ID":"2022-018A","EPOCH":"2026-03-07T03:56:32.716320","MEAN_MOTION":14.88407568,"ECCENTRICITY":0.0001578,"INCLINATION":97.8122,"RA_OF_ASC_NODE":75.0288,"ARG_OF_PERICENTER":91.1486,"MEAN_ANOMALY":268.9912,"EPHEMERIS_TYPE":0,"CLASSIFICATION_TYPE":"U","NORAD_CAT_ID":51822,"ELEMENT_SET_NO":999,"REV_AT_EPOCH":21853,"BSTAR":2.7425e-5,"MEAN_MOTION_DOT":2.0e-6,"MEAN_MOTION_DDOT":0},{"OBJECT_NAME":"2022-019D","OBJECT_ID":"2022-019D","EPOCH":"2026-03-07T05:39:12.098016","MEAN_MOTION":15.58634989,"ECCENTRICITY":0.0007139,"INCLINATION":97.3695,"RA_OF_ASC_NODE":154.1823,"ARG_OF_PERICENTER":151.0031,"MEAN_ANOMALY":209.1623,"EPHEMERIS_TYPE":0,"CLASSIFICATION_TYPE":"U","NORAD_CAT_ID":51827,"ELEMENT_SET_NO":999,"REV_AT_EPOCH":22376,"BSTAR":0.00090015,"MEAN_MOTION_DOT":0.00069497,"MEAN_MOTION_DDOT":0},{"OBJECT_NAME":"JILIN-1 GAOFEN 03D14","OBJECT_ID":"2022-019H","EPOCH":"2026-03-07T04:41:30.145056","MEAN_MOTION":15.78662486,"ECCENTRICITY":0.0004119,"INCLINATION":97.3699,"RA_OF_ASC_NODE":159.2712,"ARG_OF_PERICENTER":157.6219,"MEAN_ANOMALY":202.5228,"EPHEMERIS_TYPE":0,"CLASSIFICATION_TYPE":"U","NORAD_CAT_ID":51831,"ELEMENT_SET_NO":999,"REV_AT_EPOCH":22408,"BSTAR":0.0013463,"MEAN_MOTION_DOT":0.00240509,"MEAN_MOTION_DDOT":0},{"OBJECT_NAME":"2022-019J","OBJECT_ID":"2022-019J","EPOCH":"2026-03-07T04:22:06.083040","MEAN_MOTION":15.19952226,"ECCENTRICITY":0.0007821,"INCLINATION":97.3541,"RA_OF_ASC_NODE":131.6078,"ARG_OF_PERICENTER":217.5868,"MEAN_ANOMALY":142.4822,"EPHEMERIS_TYPE":0,"CLASSIFICATION_TYPE":"U","NORAD_CAT_ID":51832,"ELEMENT_SET_NO":999,"REV_AT_EPOCH":22230,"BSTAR":7.6499e-5,"MEAN_MOTION_DOT":1.579e-5,"MEAN_MOTION_DDOT":0},{"OBJECT_NAME":"JILIN-1 GAOFEN 03D16","OBJECT_ID":"2022-019L","EPOCH":"2026-03-07T04:27:40.154688","MEAN_MOTION":15.85305255,"ECCENTRICITY":0.0003287,"INCLINATION":97.37,"RA_OF_ASC_NODE":160.5569,"ARG_OF_PERICENTER":193.975,"MEAN_ANOMALY":166.143,"EPHEMERIS_TYPE":0,"CLASSIFICATION_TYPE":"U","NORAD_CAT_ID":51834,"ELEMENT_SET_NO":999,"REV_AT_EPOCH":22417,"BSTAR":0.0013329,"MEAN_MOTION_DOT":0.00326681,"MEAN_MOTION_DDOT":0},{"OBJECT_NAME":"JILIN-1 GAOFEN 03D11","OBJECT_ID":"2022-019M","EPOCH":"2026-03-06T04:28:30.336672","MEAN_MOTION":15.75804215,"ECCENTRICITY":0.0004099,"INCLINATION":97.3742,"RA_OF_ASC_NODE":158.189,"ARG_OF_PERICENTER":176.0899,"MEAN_ANOMALY":184.0399,"EPHEMERIS_TYPE":0,"CLASSIFICATION_TYPE":"U","NORAD_CAT_ID":51835,"ELEMENT_SET_NO":999,"REV_AT_EPOCH":22391,"BSTAR":0.0010578264,"MEAN_MOTION_DOT":0.00165135,"MEAN_MOTION_DDOT":0}]
